NORAD_CAT_ID,OBJECT_NAME,OBJECT_TYPE,EPOCH,MEAN_MOTION,ECCENTRICITY,INCLINATION,RA_OF_ASC_NODE,ARG_OF_PERICENTER,MEAN_ANOMALY,BSTAR,MEAN_MOTION_DOT,MEAN_MOTION_DDOT,TLE_LINE0,TLE_LINE1,TLE_LINE2,SEMIMAJOR_AXIS,PERIOD,APOGEE,PERIGEE,DECAYED
54165.0,STARLINK-5279,PAYLOAD,2023-02-25 03:15:52,15.08848597,0.0001452,53.2149,310.5944,109.3357,250.7792,0.0009862,0.00015446,0.0,0 STARLINK-5279,1 54165U 22141J   23056.13602175  .00015446  00000-0  98620-3 0  9990,2 54165  53.2149 310.5944 0001452 109.3357 250.7792 15.08848597 18368,6917.854,95.437,540.724,538.715,0.0
54165.0,STARLINK-5279,PAYLOAD,2023-02-25 20:45:07,15.08837661,0.0001669,53.2145,307.3245,113.0769,247.04,0.0010621,0.00016655,0.0,0 STARLINK-5279,1 54165U 22141J   23056.86466842  .00016655  00000-0  10621-2 0  9996,2 54165  53.2145 307.3245 0001669 113.0769 247.0400 15.08837661 18478,6917.888,95.438,540.907,538.598,0.0
54165.0,STARLINK-5279,PAYLOAD,2023-02-26 03:06:39,15.08845592,0.0001435,53.2144,306.1345,112.7998,247.3146,0.00077389,0.00012052,0.0,0 STARLINK-5279,1 54165U 22141J   23057.12962612  .00012052  00000-0  77389-3 0  9994,2 54165  53.2144 306.1345 0001435 112.7998 247.3146 15.08845592 18513,6917.863,95.437,540.721,538.736,0.0
54165.0,STARLINK-5279,PAYLOAD,2023-02-26 15:49:44,15.08851494,0.0001396,53.2145,303.7567,104.0028,256.1119,0.00053321,8.211e-05,0.0,0 STARLINK-5279,1 54165U 22141J   23057.65954537  .00008211  00000-0  53321-3 0  9991,2 54165  53.2145 303.7567 0001396 104.0028 256.1119 15.08851494 18591,6917.845,95.437,540.676,538.745,0.0
54165.0,STARLINK-5279,PAYLOAD,2023-02-27 01:22:03,15.08856503,0.0001566,53.2144,301.9715,89.2674,270.8497,0.00080272,0.00012516,0.0,0 STARLINK-5279,1 54165U 22141J   23058.05698231  .00012516  00000-0  80272-3 0  9990,2 54165  53.2144 301.9715 0001566  89.2674 270.8497 15.08856503 18650,6917.83,95.437,540.778,538.612,0.0
54165.0,STARLINK-5279,PAYLOAD,2023-02-27 22:02:03,15.08864915,0.0001487,53.2146,298.1029,93.7896,266.3266,0.00061044,9.447e-05,0.0,0 STARLINK-5279,1 54165U 22141J   23058.91809512  .00009447  00000-0  61044-3 0  9996,2 54165  53.2146 298.1029 0001487  93.7896 266.3266 15.08864915 18789,6917.804,95.436,540.698,538.641,0.0
54165.0,STARLINK-5279,PAYLOAD,2023-02-27 23:37:26,15.08864004,0.0001603,53.2149,297.8064,85.45,274.6675,0.00067769,0.00010521,0.0,0 STARLINK-5279,1 54165U 22141J   23058.98433487  .00010521  00000-0  67769-3 0  9992,2 54165  53.2149 297.8064 0001603  85.4500 274.6675 15.08864004 18793,6917.807,95.436,540.781,538.563,0.0
54165.0,STARLINK-5279,PAYLOAD,2023-02-28 15:31:18,15.08823089,0.0001299,53.2134,294.8334,92.2406,267.8735,0.00011717,1.577e-05,0.0,0 STARLINK-5279,1 54165U 22141J   23059.64674548  .00001577  00000-0  11717-3 0  9994,2 54165  53.2134 294.8334 0001299  92.2406 267.8735 15.08823089 18896,6917.932,95.439,540.696,538.898,0.0
54165.0,STARLINK-5279,PAYLOAD,2023-02-28 21:52:52,15.08810373,7.12e-05,53.2138,293.6438,79.9657,280.1416,-0.00013821,-2.485e-05,0.0,0 STARLINK-5279,1 54165U 22141J   23059.91171516 -.00002485  00000-0 -13821-3 0  9990,2 54165  53.2138 293.6438 0000712  79.9657 280.1416 15.08810373 18932,6917.971,95.439,540.329,539.343,0.0
54165.0,STARLINK-5279,PAYLOAD,2023-03-01 01:03:38,15.0879766,8.53e-05,53.2146,293.0478,100.6421,259.4667,-9.6255e-06,-4.41e-06,0.0,0 STARLINK-5279,1 54165U 22141J   23060.04419880 -.00000441  00000-0 -96255-5 0  9999,2 54165  53.2146 293.0478 0000853 100.6421 259.4667 15.08797660 18958,6918.01,95.44,540.465,539.285,0.0
54165.0,STARLINK-5279,PAYLOAD,2023-03-01 20:08:17,15.08839012,7.1e-05,53.2151,289.4795,98.3499,261.7574,0.0013699,0.00021581,0.0,0 STARLINK-5279,1 54165U 22141J   23060.83908725  .00021581  00000-0  13699-2 0  9991,2 54165  53.2151 289.4795 0000710  98.3499 261.7574 15.08839012 19070,6917.883,95.438,540.24,539.257,0.0
54165.0,STARLINK-5279,PAYLOAD,2023-03-01 21:43:40,15.08848774,6.71e-05,53.2144,289.1832,86.9767,273.1302,0.0015737,0.00024852,0.0,0 STARLINK-5279,1 54165U 22141J   23060.90532665  .00024852  00000-0  15737-2 0  9994,2 54165  53.2144 289.1832 0000671  86.9767 273.1302 15.08848774 19080,6917.854,95.437,540.183,539.254,0.0
54165.0,STARLINK-5279,PAYLOAD,2023-03-02 19:59:03,15.08868786,6.56e-05,53.2145,285.0198,99.3495,260.7572,0.0010361,0.00016253,0.0,0 STARLINK-5279,1 54165U 22141J   23061.83267779  .00016253  00000-0  10361-2 0  9992,2 54165  53.2145 285.0198 0000656  99.3495 260.7572 15.08868786 19222,6917.792,95.436,540.111,539.204,0.0
54165.0,STARLINK-5279,PAYLOAD,2023-03-03 02:20:35,15.08878541,6.11e-05,53.2136,283.8305,103.7013,256.4047,0.0015561,0.0002459,0.0,0 STARLINK-5279,1 54165U 22141J   23062.09763257  .00024590  00000-0  15561-2 0  9993,2 54165  53.2136 283.8305 0000611 103.7013 256.4047 15.08878541 19268,6917.763,95.435,540.05,539.205,0.0
54165.0,STARLINK-5279,PAYLOAD,2023-03-03 15:03:40,15.08864073,7.88e-05,53.2142,281.4515,84.3211,275.7871,0.0013894,0.00021908,0.0,0 STARLINK-5279,1 54165U 22141J   23062.62755192  .00021908  00000-0  13894-2 0  9998,2 54165  53.2142 281.4515 0000788  84.3211 275.7871 15.08864073 19344,6917.807,95.436,540.217,539.127,0.0
54165.0,STARLINK-5279,PAYLOAD,2023-03-03 21:25:12,15.08863594,0.0001009,53.2154,280.2646,92.3427,267.768,0.0010081,0.00015803,0.0,0 STARLINK-5279,1 54165U 22141J   23062.89250863  .00015803  00000-0  10081-2 0  9994,2 54165  53.2154 280.2646 0001009  92.3427 267.7680 15.08863594 19384,6917.808,95.436,540.371,538.975,0.0
54165.0,STARLINK-5279,PAYLOAD,2023-03-04 21:16:00,15.08844462,9.35e-05,53.213,275.8005,69.7084,290.4008,0.00083417,0.00013014,0.0,0 STARLINK-5279,1 54165U 22141J   23063.88611369  .00013014  00000-0  83417-3 0  9992,2 54165  53.2130 275.8005 0000935  69.7084 290.4008 15.08844462 19538,6917.867,95.437,540.379,539.085,0.0
54165.0,STARLINK-5279,PAYLOAD,2023-03-04 22:51:23,15.08842543,8.2e-05,53.2136,275.5031,67.0049,293.1029,0.00042226,6.439e-05,0.0,0 STARLINK-5279,1 54165U 22141J   23063.95235306  .00006439  00000-0  42226-3 0  9999,2 54165  53.2136 275.5031 0000820  67.0049 293.1029 15.08842543 19547,6917.873,95.437,540.305,539.17,0.0
54165.0,STARLINK-5279,PAYLOAD,2023-03-05 21:06:48,15.0880188,0.000105,53.2138,271.3429,94.3423,265.7689,-0.00067521,-0.00011006,0.0,0 STARLINK-5279,1 54165U 22141J   23064.87972775 -.00011006  00000-0 -67521-3 0  9992,2 54165  53.2138 271.3429 0001050  94.3423 265.7689 15.08801880 19680,6917.997,95.44,540.588,539.136,0.0
54165.0,STARLINK-5279,PAYLOAD,2023-03-06 00:17:34,15.08804932,9.69e-05,53.2132,270.7464,102.2599,257.8501,-0.00057518,-9.421e-05,0.0,0 STARLINK-5279,1 54165U 22141J   23065.01220587 -.00009421  00000-0 -57518-3 0  9999,2 54165  53.2132 270.7464 0000969 102.2599 257.8501 15.08804932 19706,6917.988,95.44,540.523,539.182,0.0
54165.0,STARLINK-5279,PAYLOAD,2023-03-06 16:11:26,15.08822795,8.43e-05,53.2137,267.7706,82.3615,277.7473,-1.1508e-05,-4.71e-06,0.0,0 STARLINK-5279,1 54165U 22141J   23065.67461350 -.00000471  00000-0 -11508-4 0  9992,2 54165  53.2137 267.7706 0000843  82.3615 277.7473 15.08822795 19801,6917.933,95.439,540.381,539.215,0.0
54165.0,STARLINK-5279,PAYLOAD,2023-03-07 01:43:44,15.088583,9.28e-05,53.2137,265.986,85.7319,274.3779,0.00047273,7.247e-05,0.0,0 STARLINK-5279,1 54165U 22141J   23066.07203864  .00007247  00000-0  47273-3 0  9994,2 54165  53.2137 265.9860 0000928  85.7319 274.3779 15.08858300 19863,6917.824,95.436,540.331,539.047,0.0
54165.0,STARLINK-5279,PAYLOAD,2023-03-07 19:12:58,15.0885734,0.0001379,53.2132,262.7129,88.8453,271.2697,0.00035381,5.35e-05,0.0,0 STARLINK-5279,1 54165U 22141J   23066.80067717  .00005350  00000-0  35381-3 0  9990,2 54165  53.2132 262.7129 0001379  88.8453 271.2697 15.08857340 19975,6917.827,95.436,540.646,538.738,0.0
54165.0,STARLINK-5279,PAYLOAD,2023-03-08 12:42:13,15.08849359,0.000129,53.2119,259.4448,80.7713,279.3425,0.00016451,2.332e-05,0.0,0 STARLINK-5279,1 54165U 22141J   23067.52931959  .00002332  00000-0  16451-3 0  9992,2 54165  53.2119 259.4448 0001290  80.7713 279.3425 15.08849359 20082,6917.852,95.437,540.609,538.824,0.0
54165.0,STARLINK-5279,PAYLOAD,2023-03-08 19:03:45,15.08854003,0.0001631,53.2123,258.2517,107.5438,252.5732,-1.2045e-06,-3.07e-06,0.0,0 STARLINK-5279,1 54165U 22141J   23067.79427700 -.00000307  00000-0 -12045-5 0  9994,2 54165  53.2123 258.2517 0001631 107.5438 252.5732 15.08854003 20123,6917.838,95.437,540.831,538.574,0.0
54165.0,STARLINK-5279,PAYLOAD,2023-03-09 06:11:27,15.08847601,0.0001667,53.2121,256.1722,84.1278,275.9904,-9.9442e-05,-1.871e-05,0.0,0 STARLINK-5279,1 54165U 22141J   23068.25795932 -.00001871  00000-0 -99442-4 0  9993,2 54165  53.2121 256.1722 0001667  84.1278 275.9904 15.08847601 20190,6917.857,95.437,540.875,538.569,0.0
54165.0,STARLINK-5279,PAYLOAD,2023-03-09 22:05:18,15.08862621,0.0001201,53.2138,253.1989,88.4406,271.6723,0.00021054,3.066e-05,0.0,0 STARLINK-5279,1 54165U 22141J   23068.92034777  .00003066  00000-0  21054-3 0  9999,2 54165  53.2138 253.1989 0001201  88.4406 271.6723 15.08862621 20296,6917.811,95.436,540.507,538.845,0.0
54165.0,STARLINK-5279,PAYLOAD,2023-03-10 18:45:20,15.08837994,0.0001665,53.2125,249.333,81.6666,278.4515,4.5784e-05,4.41e-06,0.0,0 STARLINK-5279,1 54165U 22141J   23069.78148255  .00000441  00000-0  45784-4 0  9992,2 54165  53.2125 249.3330 0001665  81.6666 278.4515 15.08837994 20420,6917.887,95.438,540.903,538.6,0.0
54165.0,STARLINK-5279,PAYLOAD,2023-03-10 21:56:06,15.08837173,0.0001279,53.2126,248.7382,74.4895,285.6239,4.0681e-05,3.6e-06,0.0,0 STARLINK-5279,1 54165U 22141J   23069.91396316  .00000360  00000-0  40681-4 0  9991,2 54165  53.2126 248.7382 0001279  74.4895 285.6239 15.08837173 20440,6917.889,95.438,540.639,538.869,0.0
54165.0,STARLINK-5279,PAYLOAD,2023-03-11 12:14:34,15.08830715,5.26e-05,53.217,246.063,80.8621,279.2431,-8.8788e-05,-1.7e-05,0.0,0 STARLINK-5279,1 54165U 22141J   23070.51012601 -.00001700  00000-0 -88788-4 0  9992,2 54165  53.2170 246.0630 0000526  80.8621 279.2431 15.08830715 20536,6917.909,95.438,540.138,539.41,0.0
